{
    "links": {
        "self": "http://www.neowsapp.com/rest/v1/neo/3726598?api_key=iIulBulltgU6a56xZRHN4H3l9WmuAYTsLGpBGhQ2"
    },
    "id": "3726598",
    "neo_reference_id": "3726598",
    "name": "(2015 QS8)",
    "designation": "2015 QS8",
    "nasa_jpl_url": "http://ssd.jpl.nasa.gov/sbdb.cgi?sstr=3726598",
    "absolute_magnitude_h": 27.0,
    "estimated_diameter": {
        "kilometers": {
            "estimated_diameter_min": 0.0105816886,
            "estimated_diameter_max": 0.023661375
        },
        "meters": {
            "estimated_diameter_min": 10.5816885933,
            "estimated_diameter_max": 23.6613750114
        },
        "miles": {
            "estimated_diameter_min": 0.0065751544,
            "estimated_diameter_max": 0.0147024923
        },
        "feet": {
            "estimated_diameter_min": 34.7168272045,
            "estimated_diameter_max": 77.6291855923
        }
    },
    "is_potentially_hazardous_asteroid": false,
    "close_approach_data": [
        {
            "close_approach_date": "2015-08-22",
            "close_approach_date_full": "2015-Aug-22 14:44",
            "epoch_date_close_approach": 1440254640000,
            "relative_velocity": {
                "kilometers_per_second": "7.7914188907",
                "kilometers_per_hour": "28049.1080063766",
                "miles_per_hour": "17428.6249165178"
            },
            "miss_distance": {
                "astronomical": "0.0128475778",
                "lunar": "4.9977077642",
                "kilometers": "1921970.273539286",
                "miles": "1194256.9495467068"
            },
            "orbiting_body": "Earth"
        },
        {
            "close_approach_date": "2122-10-14",
            "close_approach_date_full": "2122-Oct-14 07:36",
            "epoch_date_close_approach": 4821406560000,
            "relative_velocity": {
                "kilometers_per_second": "18.5010510405",
                "kilometers_per_hour": "66603.7837456582",
                "miles_per_hour": "41385.0010724063"
            },
            "miss_distance": {
                "astronomical": "0.3614551723",
                "lunar": "140.6060620247",
                "kilometers": "54072923.876563001",
                "miles": "33599356.8740153738"
            },
            "orbiting_body": "Earth"
        }
    ],
    "orbital_data": {
        "orbit_id": "6",
        "orbit_determination_date": "2017-04-06 08:32:19",
        "first_observation_date": "2015-08-22",
        "last_observation_date": "2015-08-26",
        "data_arc_in_days": 4,
        "observations_used": 31,
        "orbit_uncertainty": "7",
        "minimum_orbit_intersection": ".0143404",
        "jupiter_tisserand_invariant": "3.590",
        "epoch_osculation": "2459000.5",
        "eccentricity": ".5061891300262638",
        "semi_major_axis": "2.074343901581852",
        "inclination": "6.798085747024079",
        "ascending_node_longitude": "151.5462292510102",
        "orbital_period": "1091.238211725155",
        "perihelion_distance": "1.024333566664849",
        "perihelion_argument": "176.021855863643",
        "aphelion_distance": "3.124354236498855",
        "perihelion_time": "2459441.681135197932",
        "mean_anomaly": "214.4541357105098",
        "mean_motion": ".3299004709804568",
        "equinox": "J2000",
        "orbit_class": {
            "orbit_class_type": "AMO",
            "orbit_class_description": "Near-Earth asteroid orbits similar to that of 1221 Amor",
            "orbit_class_range": "1.017 AU < q (perihelion) < 1.3 AU"
        }
    },
    "is_sentry_object": false
}